{"type": "FeatureCollection", "features": [ {"type": "Feature", "properties": {"norad_id": 37499, "name": "COSMOS 2251 DEB", "group": "cosmos-2251-debris", "lat": 36.17301825584385, "lon": 147.56969316995907, "alt_km": 772.1732739414256, "timestamp": "2025-12-03T04:52:30.036541+00:00", "meta": {"OBJECT_NAME": "COSMOS 2251 DEB", "OBJECT_ID": "1993-036BMC", "EPOCH": "2025-12-02T18:10:26.857056", "MEAN_MOTION": 14.34326576, "ECCENTRICITY": 0.0026618, "INCLINATION": 74.0374, "RA_OF_ASC_NODE": 340.4656, "ARG_OF_PERICENTER": 59.6085, "MEAN_ANOMALY": 300.7692, "EPHEMERIS_TYPE": 0, "CLASSIFICATION_TYPE": "U", "NORAD_CAT_ID": 37499, "ELEMENT_SET_NO": 999, "REV_AT_EPOCH": 85006, "BSTAR": 0.00020272, "MEAN_MOTION_DOT": 5.46e-06, "MEAN_MOTION_DDOT": 0}, "tle": {"line1": "1 37499U 93036BMC 25336.75725529  .00000546  00000+0  20272-3 0  9994", "line2": "2 37499  74.0374 340.4656 0026618  59.6085 300.7692 14.34326576850060"}}, "geometry": {"type": "Point", "coordinates": [147.56969316995907, 36.17301825584385]}}, {"type": "Feature", "properties": {"norad_id": 37528, "name": "COSMOS 2251 DEB", "group": "cosmos-2251-debris", "lat": 69.38221195724665, "lon": -89.47838657632835, "alt_km": 731.8424216038302, "timestamp": "2025-12-03T04:52:30.036552+00:00", "meta": {"OBJECT_NAME": "COSMOS 2251 DEB", "OBJECT_ID": "1993-036BNH", "EPOCH": "2025-12-01T04:23:44.422656", "MEAN_MOTION": 14.50451173, "ECCENTRICITY": 0.0020905, "INCLINATION": 74.0362, "RA_OF_ASC_NODE": 143.8539, "ARG_OF_PERICENTER": 293.085, "MEAN_ANOMALY": 66.8106, "EPHEMERIS_TYPE": 0, "CLASSIFICATION_TYPE": "U", "NORAD_CAT_ID": 37528, "ELEMENT_SET_NO": 999, "REV_AT_EPOCH": 85763, "BSTAR": 0.0005005, "MEAN_MOTION_DOT": 1.935e-05, "MEAN_MOTION_DDOT": 0}, "tle": {"line1": "1 37528U 93036BNH 25335.18315304  .00001935  00000+0  50050-3 0  9999", "line2": "2 37528  74.0362 143.8539 0020905 293.0850  66.8106 14.50451173857632"}}, "geometry": {"type": "Point", "coordinates": [-89.47838657632835, 69.38221195724665]}}, {"type": "Feature", "properties": {"norad_id": 37530, "name": "COSMOS 2251 DEB", "group": "cosmos-2251-debris", "lat": -20.173205519638167, "lon": 177.14667960798755, "alt_km": 796.4502254915569, "timestamp": "2025-12-03T04:52:30.036572+00:00", "meta": {"OBJECT_NAME": "COSMOS 2251 DEB", "OBJECT_ID": "1993-036BNK", "EPOCH": "2025-11-30T19:50:14.646624", "MEAN_MOTION": 14.34478642, "ECCENTRICITY": 0.00255427, "INCLINATION": 74.0356, "RA_OF_ASC_NODE": 355.4602, "ARG_OF_PERICENTER": 61.4891, "MEAN_ANOMALY": 111.2815, "EPHEMERIS_TYPE": 0, "CLASSIFICATION_TYPE": "U", "NORAD_CAT_ID": 37530, "ELEMENT_SET_NO": 999, "REV_AT_EPOCH": 85061, "BSTAR": 0.00021143929, "MEAN_MOTION_DOT": 5.72e-06, "MEAN_MOTION_DDOT": 0}, "tle": {"line1": "1 37530U 93036BNK 25334.82655841  .00000572  00000+0  21144-3 0  9993", "line2": "2 37530  74.0356 355.4602 0025542  61.4891 111.2815 14.34478642850619"}}, "geometry": {"type": "Point", "coordinates": [177.14667960798755, -20.173205519638167]}}, {"type": "Feature", "properties": {"norad_id": 37532, "name": "COSMOS 2251 DEB", "group": "cosmos-2251-debris", "lat": 64.63754779042746, "lon": -89.50031331416825, "alt_km": 744.937992618854, "timestamp": "2025-12-03T04:52:30.036585+00:00", "meta": {"OBJECT_NAME": "COSMOS 2251 DEB", "OBJECT_ID": "1993-036BNM", "EPOCH": "2025-11-30T12:27:06.962976", "MEAN_MOTION": 14.42376365, "ECCENTRICITY": 0.00155828, "INCLINATION": 74.0506, "RA_OF_ASC_NODE": 238.3668, "ARG_OF_PERICENTER": 340.6914, "MEAN_ANOMALY": 196.4661, "EPHEMERIS_TYPE": 0, "CLASSIFICATION_TYPE": "U", "NORAD_CAT_ID": 37532, "ELEMENT_SET_NO": 999, "REV_AT_EPOCH": 84739, "BSTAR": 0.00024978235, "MEAN_MOTION_DOT": 8e-06, "MEAN_MOTION_DDOT": 0}, "tle": {"line1": "1 37532U 93036BNM 25334.51883059  .00000800  00000+0  24978-3 0  9997", "line2": "2 37532  74.0506 238.3668 0015582 340.6914 196.4661 14.42376365847393"}}, "geometry": {"type": "Point", "coordinates": [-89.50031331416825, 64.63754779042746]}}, {"type": "Feature", "properties": {"norad_id": 37533, "name": "COSMOS 2251 DEB", "group": "cosmos-2251-debris", "lat": 57.276902840119384, "lon": 2.2238053431063345, "alt_km": 943.5823307300543, "timestamp": "2025-12-03T04:52:30.036596+00:00", "meta": {"OBJECT_NAME": "COSMOS 2251 DEB", "OBJECT_ID": "1993-036BNN", "EPOCH": "2025-12-01T21:41:44.265120", "MEAN_MOTION": 14.12078799, "ECCENTRICITY": 0.01585574, "INCLINATION": 74.0695, "RA_OF_ASC_NODE": 210.9037, "ARG_OF_PERICENTER": 269.9703, "MEAN_ANOMALY": 88.3269, "EPHEMERIS_TYPE": 0, "CLASSIFICATION_TYPE": "U", "NORAD_CAT_ID": 37533, "ELEMENT_SET_NO": 999, "REV_AT_EPOCH": 62768, "BSTAR": 0.0015153786, "MEAN_MOTION_DOT": 3.103e-05, "MEAN_MOTION_DDOT": 0}, "tle": {"line1": "1 37533U 93036BNN 25335.90398455  .00003103  00000+0  15154-2 0  9997", "line2": "2 37533  74.0695 210.9037 0158557 269.9703  88.3269 14.12078799627686"}}, "geometry": {"type": "Point", "coordinates": [2.2238053431063345, 57.276902840119384]}}, {"type": "Feature", "properties": {"norad_id": 37535, "name": "COSMOS 2251 DEB", "group": "cosmos-2251-debris", "lat": -68.12206481726841, "lon": -42.81947879921418, "alt_km": 687.0605579145777, "timestamp": "2025-12-03T04:52:30.036607+00:00", "meta": {"OBJECT_NAME": "COSMOS 2251 DEB", "OBJECT_ID": "1993-036BNQ", "EPOCH": "2025-12-02T18:23:39.005088", "MEAN_MOTION": 14.5832597, "ECCENTRICITY": 0.0028279, "INCLINATION": 74.0242, "RA_OF_ASC_NODE": 92.4973, "ARG_OF_PERICENTER": 232.6433, "MEAN_ANOMALY": 250.324, "EPHEMERIS_TYPE": 0, "CLASSIFICATION_TYPE": "U", "NORAD_CAT_ID": 37535, "ELEMENT_SET_NO": 999, "REV_AT_EPOCH": 85179, "BSTAR": 0.0012368, "MEAN_MOTION_DOT": 5.729e-05, "MEAN_MOTION_DDOT": 0}, "tle": {"line1": "1 37535U 93036BNQ 25336.76642367  .00005729  00000+0  12368-2 0  9998", "line2": "2 37535  74.0242  92.4973 0028279 232.6433 250.3240 14.58325970851799"}}, "geometry": {"type": "Point", "coordinates": [-42.81947879921418, -68.12206481726841]}}, {"type": "Feature", "properties": {"norad_id": 37537, "name": "COSMOS 2251 DEB", "group": "cosmos-2251-debris", "lat": 72.65745361389469, "lon": -10.646964471345417, "alt_km": 725.515293610174, "timestamp": "2025-12-03T04:52:30.036617+00:00", "meta": {"OBJECT_NAME": "COSMOS 2251 DEB", "OBJECT_ID": "1993-036BNS", "EPOCH": "2025-12-02T05:06:31.670784", "MEAN_MOTION": 14.37465624, "ECCENTRICITY": 0.0049967, "INCLINATION": 74.0119, "RA_OF_ASC_NODE": 284.5266, "ARG_OF_PERICENTER": 67.5686, "MEAN_ANOMALY": 293.0749, "EPHEMERIS_TYPE": 0, "CLASSIFICATION_TYPE": "U", "NORAD_CAT_ID": 37537, "ELEMENT_SET_NO": 999, "REV_AT_EPOCH": 84882, "BSTAR": 0.00030745, "MEAN_MOTION_DOT": 9.07e-06, "MEAN_MOTION_DDOT": 0}, "tle": {"line1": "1 37537U 93036BNS 25336.21286656  .00000907  00000+0  30745-3 0  9998", "line2": "2 37537  74.0119 284.5266 0049967  67.5686 293.0749 14.37465624848821"}}, "geometry": {"type": "Point", "coordinates": [-10.646964471345417, 72.65745361389469]}}, {"type": "Feature", "properties": {"norad_id": 37546, "name": "COSMOS 2251 DEB", "group": "cosmos-2251-debris", "lat": 41.794337149962146, "lon": -78.03010771863619, "alt_km": 621.2056422657024, "timestamp": "2025-12-03T04:52:30.036628+00:00", "meta": {"OBJECT_NAME": "COSMOS 2251 DEB", "OBJECT_ID": "1993-036BPB", "EPOCH": "2025-12-01T01:57:48.654432", "MEAN_MOTION": 14.7972634, "ECCENTRICITY": 0.00071974, "INCLINATION": 74.0208, "RA_OF_ASC_NODE": 120.9905, "ARG_OF_PERICENTER": 150.0376, "MEAN_ANOMALY": 210.1213, "EPHEMERIS_TYPE": 0, "CLASSIFICATION_TYPE": "U", "NORAD_CAT_ID": 37546, "ELEMENT_SET_NO": 999, "REV_AT_EPOCH": 65715, "BSTAR": 0.0028528218, "MEAN_MOTION_DOT": 0.0002149, "MEAN_MOTION_DDOT": 0}, "tle": {"line1": "1 37546U 93036BPB 25335.08181313  .00021490  00000+0  28528-2 0  9991", "line2": "2 37546  74.0208 120.9905 0007197 150.0376 210.1213 14.79726340657157"}}, "geometry": {"type": "Point", "coordinates": [-78.03010771863619, 41.794337149962146]}}, {"type": "Feature", "properties": {"norad_id": 37959, "name": "COSMOS 2251 DEB", "group": "cosmos-2251-debris", "lat": 8.454221484208757, "lon": 77.55899123488244, "alt_km": 736.5685740907393, "timestamp": "2025-12-03T04:52:30.036638+00:00", "meta": {"OBJECT_NAME": "COSMOS 2251 DEB", "OBJECT_ID": "1993-036BPJ", "EPOCH": "2025-12-01T13:23:10.736160", "MEAN_MOTION": 14.58009519, "ECCENTRICITY": 0.00585454, "INCLINATION": 74.0106, "RA_OF_ASC_NODE": 78.2498, "ARG_OF_PERICENTER": 223.2236, "MEAN_ANOMALY": 152.6035, "EPHEMERIS_TYPE": 0, "CLASSIFICATION_TYPE": "U", "NORAD_CAT_ID": 37959, "ELEMENT_SET_NO": 999, "REV_AT_EPOCH": 79964, "BSTAR": 0.00093616583, "MEAN_MOTION_DOT": 4.376e-05, "MEAN_MOTION_DDOT": 0}, "tle": {"line1": "1 37959U 93036BPJ 25335.55776315  .00004376  00000+0  93617-3 0  9999", "line2": "2 37959  74.0106  78.2498 0058545 223.2236 152.6035 14.58009519799647"}}, "geometry": {"type": "Point", "coordinates": [77.55899123488244, 8.454221484208757]}}, {"type": "Feature", "properties": {"norad_id": 37960, "name": "COSMOS 2251 DEB", "group": "cosmos-2251-debris", "lat": 29.662812510847825, "lon": 14.237019278586532, "alt_km": 816.1037688104961, "timestamp": "2025-12-03T04:52:30.036649+00:00", "meta": {"OBJECT_NAME": "COSMOS 2251 DEB", "OBJECT_ID": "1993-036BPK", "EPOCH": "2025-12-01T21:26:55.399200", "MEAN_MOTION": 14.07801052, "ECCENTRICITY": 0.02498308, "INCLINATION": 74.0589, "RA_OF_ASC_NODE": 205.8992, "ARG_OF_PERICENTER": 227.2395, "MEAN_ANOMALY": 130.7486, "EPHEMERIS_TYPE": 0, "CLASSIFICATION_TYPE": "U", "NORAD_CAT_ID": 37960, "ELEMENT_SET_NO": 999, "REV_AT_EPOCH": 77253, "BSTAR": 0.0010377763, "MEAN_MOTION_DOT": 2.314e-05, "MEAN_MOTION_DDOT": 0}, "tle": {"line1": "1 37960U 93036BPK 25335.89369675  .00002314  00000+0  10378-2 0  9997", "line2": "2 37960  74.0589 205.8992 0249830 227.2395 130.7486 14.07801052772532"}}, "geometry": {"type": "Point", "coordinates": [14.237019278586532, 29.662812510847825]}}]}